COMMENT,ORIGINATOR,NORAD_CAT_ID,OBJECT_NAME,OBJECT_TYPE,CLASSIFICATION_TYPE,INTLDES,EPOCH,EPOCH_MICROSECONDS,MEAN_MOTION,ECCENTRICITY,INCLINATION,RA_OF_ASC_NODE,ARG_OF_PERICENTER,MEAN_ANOMALY,EPHEMERIS_TYPE,ELEMENT_SET_NO,REV_AT_EPOCH,BSTAR,MEAN_MOTION_DOT,MEAN_MOTION_DDOT,FILE,TLE_LINE0,TLE_LINE1,TLE_LINE2,OBJECT_ID,OBJECT_NUMBER,SEMIMAJOR_AXIS,PERIOD,APOGEE,PERIGEE,DECAYED,date
GENERATED VIA SPACETRACK.ORG API,18 SPCS,48883,SPACEBEE-100,PAYLOAD,U,21059E,2023/2/3 14:41,112800,15.22096329,0.000814,97.5764,169.2427,17.9772,342.175,0,999,8900,0.00084207,0.0001926,0,3770159,0 SPACEBEE-100,1 48883U 21059E   23034.61225825  .00019260  00000-0  84207-3 0  9993,2 48883  97.5764 169.2427 0008140  17.9772 342.1750 15.22096329 89006,2021-059E,48883,6877.655,94.606,505.119,493.922,0,2023/3/11
GENERATED VIA SPACETRACK.ORG API,18 SPCS,48883,SPACEBEE-100,PAYLOAD,U,21059E,2023/2/3 14:41,112800,15.22096329,0.000814,97.5764,169.2427,17.9772,342.175,0,999,8900,0.00084207,0.0001926,0,3770323,0 SPACEBEE-100,1 48883U 21059E   23034.61225825  .00019260  00000-0  84207-3 0  9993,2 48883  97.5764 169.2427 0008140  17.9772 342.1750 15.22096329 89006,2021-059E,48883,6877.655,94.606,505.119,493.922,0,2023/3/12
GENERATED VIA SPACETRACK.ORG API,18 SPCS,48883,SPACEBEE-100,PAYLOAD,U,21059E,2023/2/3 19:25,46080,15.22104894,0.0008128,97.5762,169.4414,17.2325,342.9185,0,999,8903,0.00086002,0.00019678,0,3770748,0 SPACEBEE-100,1 48883U 21059E   23034.80947970  .00019678  00000-0  86002-3 0  9994,2 48883  97.5762 169.4414 0008128  17.2325 342.9185 15.22104894 89035,2021-059E,48883,6877.63,94.606,505.085,493.905,0,2023/3/13
GENERATED VIA SPACETRACK.ORG API,18 SPCS,48883,SPACEBEE-100,PAYLOAD,U,21059E,2023/2/4 8:02,355232,15.22130702,0.0008128,97.5766,169.9714,15.2407,344.9072,0,999,8911,0.0010143,0.0002325,0,3771952,0 SPACEBEE-100,1 48883U 21059E   23035.33539763  .00023250  00000-0  10143-2 0  9993,2 48883  97.5766 169.9714 0008128  15.2407 344.9072 15.22130702 89119,2021-059E,48883,6877.552,94.604,505.007,493.827,0,2023/3/14
GENERATED VIA SPACETRACK.ORG API,18 SPCS,48883,SPACEBEE-100,PAYLOAD,U,21059E,2023/2/4 22:14,770944,15.22153853,0.0008067,97.577,170.5674,13.1737,346.9708,0,999,8920,0.00083353,0.00019095,0,3772300,0 SPACEBEE-100,1 48883U 21059E   23035.92704596  .00019095  00000-0  83353-3 0  9992,2 48883  97.5770 170.5674 0008067  13.1737 346.9708 15.22153853 89202,2021-059E,48883,6877.482,94.603,504.895,493.799,0,2023/3/15
GENERATED VIA SPACETRACK.ORG API,18 SPCS,48883,SPACEBEE-100,PAYLOAD,U,21059E,2023/2/5 7:42,224864,15.22171517,0.0008072,97.577,170.9649,11.7429,348.3993,0,999,8926,0.00087796,0.0002013,0,3773728,0 SPACEBEE-100,1 48883U 21059E   23036.32147251  .00020130  00000-0  87796-3 0  9993,2 48883  97.5770 170.9649 0008072  11.7429 348.3993 15.22171517 89261,2021-059E,48883,6877.429,94.602,504.845,493.743,0,2023/3/16
GENERATED VIA SPACETRACK.ORG API,18 SPCS,48883,SPACEBEE-100,PAYLOAD,U,21059E,2023/2/5 21:54,170912,15.22199139,0.0008023,97.5773,171.5609,9.9576,350.1818,0,999,8935,0.00092191,0.00021162,0,3774172,0 SPACEBEE-100,1 48883U 21059E   23036.91310383  .00021162  00000-0  92191-3 0  9997,2 48883  97.5773 171.5609 0008023   9.9576 350.1818 15.22199139 89352,2021-059E,48883,6877.346,94.6,504.728,493.693,0,2023/3/17
GENERATED VIA SPACETRACK.ORG API,18 SPCS,48883,SPACEBEE-100,PAYLOAD,U,21059E,2023/2/6 2:38,927424,15.22208169,0.000807,97.5774,171.76,8.8418,351.2959,0,999,8938,0.00095998,0.00022047,0,3774501,0 SPACEBEE-100,1 48883U 21059E   23037.11031166  .00022047  00000-0  95998-3 0  9990,2 48883  97.5774 171.7600 0008070   8.8418 351.2959 15.22208169 89386,2021-059E,48883,6877.319,94.599,504.734,493.634,0,2023/3/18
GENERATED VIA SPACETRACK.ORG API,18 SPCS,48883,SPACEBEE-100,PAYLOAD,U,21059E,2023/2/6 7:22,605312,15.22220288,0.0008089,97.5774,171.9588,8.1943,351.9423,0,999,8941,0.0011002,0.00025298,0,3775254,0 SPACEBEE-100,1 48883U 21059E   23037.30751858  .00025298  00000-0  11002-2 0  9992,2 48883  97.5774 171.9588 0008089   8.1943 351.9423 15.22220288 89412,2021-059E,48883,6877.282,94.599,504.71,493.584,0,2023/3/19
GENERATED VIA SPACETRACK.ORG API,18 SPCS,48883,SPACEBEE-100,PAYLOAD,U,21059E,2023/2/6 20:00,391072,15.22251117,0.0008053,97.5774,172.4887,6.6499,353.4843,0,999,8949,0.0011704,0.00026947,0,3776034,0 SPACEBEE-100,1 48883U 21059E   23037.83339573  .00026947  00000-0  11704-2 0  9997,2 48883  97.5774 172.4887 0008053   6.6499 353.4843 15.22251117 89496,2021-059E,48883,6877.189,94.597,504.592,493.516,0,2023/3/20
GENERATED VIA SPACETRACK.ORG API,18 SPCS,48883,SPACEBEE-100,PAYLOAD,U,21059E,2023/2/6 21:34,805216,15.22254641,0.0008051,97.5774,172.555,6.4553,353.6785,0,999,8950,0.0011746,0.00027047,0,3776403,0 SPACEBEE-100,1 48883U 21059E   23037.89912969  .00027047  00000-0  11746-2 0  9997,2 48883  97.5774 172.5550 0008051   6.4553 353.6785 15.22254641 89505,2021-059E,48883,6877.179,94.597,504.58,493.507,0,2023/3/21
GENERATED VIA SPACETRACK.ORG API,18 SPCS,48883,SPACEBEE-100,PAYLOAD,U,21059E,2023/2/7 8:37,215200,15.22286624,0.0008083,97.5773,173.0191,5.1469,354.9849,0,999,8957,0.0013954,0.00032198,0,3777208,0 SPACEBEE-100,1 48883U 21059E   23038.35926175  .00032198  00000-0  13954-2 0  9999,2 48883  97.5773 173.0191 0008083   5.1469 354.9849 15.22286624 89576,2021-059E,48883,6877.082,94.595,504.506,493.389,0,2023/3/22
GENERATED VIA SPACETRACK.ORG API,18 SPCS,48883,SPACEBEE-100,PAYLOAD,U,21059E,2023/2/7 21:14,941184,15.22321709,0.000802,97.5774,173.5488,2.9716,357.1566,0,999,8965,0.0013358,0.00030845,0,3777734,0 SPACEBEE-100,1 48883U 21059E   23038.88511506  .00030845  00000-0  13358-2 0  9990,2 48883  97.5774 173.5488 0008020   2.9716 357.1566 15.22321709 89656,2021-059E,48883,6876.977,94.592,504.357,493.326,0,2023/3/23
GENERATED VIA SPACETRACK.ORG API,18 SPCS,48883,SPACEBEE-100,PAYLOAD,U,21059E,2023/2/7 21:14,941184,15.22321709,0.000802,97.5774,173.5488,2.9716,357.1566,0,999,8965,0.0013358,0.00030845,0,3777976,0 SPACEBEE-100,1 48883U 21059E   23038.88511506  .00030845  00000-0  13358-2 0  9990,2 48883  97.5774 173.5488 0008020   2.9716 357.1566 15.22321709 89656,2021-059E,48883,6876.977,94.592,504.357,493.326,0,2023/3/24
GENERATED VIA SPACETRACK.ORG API,18 SPCS,48883,SPACEBEE-100,PAYLOAD,U,21059E,2023/2/8 8:17,537632,15.22355049,0.0008052,97.5776,174.0126,1.0631,359.0621,0,999,8972,0.0014295,0.00033057,0,3780324,0 SPACEBEE-100,1 48883U 21059E   23039.34522613  .00033057  00000-0  14295-2 0  9992,2 48883  97.5776 174.0126 0008052   1.0631 359.0621 15.22355049 89729,2021-059E,48883,6876.876,94.59,504.278,493.204,0,2023/3/25
GENERATED VIA SPACETRACK.ORG API,18 SPCS,48883,SPACEBEE-100,PAYLOAD,U,21059E,2023/2/8 14:35,485216,15.22376371,0.0008026,97.5775,174.2775,0.2489,359.875,0,999,8976,0.0015891,0.00036797,0,3780454,0 SPACEBEE-100,1 48883U 21059E   23039.60814219  .00036797  00000-0  15891-2 0  9994,2 48883  97.5775 174.2775 0008026   0.2489 359.8750 15.22376371 89769,2021-059E,48883,6876.812,94.589,504.196,493.158,0,2023/3/26
GENERATED VIA SPACETRACK.ORG API,18 SPCS,48883,SPACEBEE-100,PAYLOAD,U,21059E,2023/2/8 20:54,157184,15.22395202,0.0008117,97.5778,174.5426,359.0308,1.0911,0,999,8980,0.0015214,0.00035239,0,3780893,0 SPACEBEE-100,1 48883U 21059E   23039.87105506  .00035239  00000-0  15214-2 0  9994,2 48883  97.5778 174.5426 0008117 359.0308   1.0911 15.22395202 89808,2021-059E,48883,6876.755,94.588,504.202,493.038,0,2023/3/27
GENERATED VIA SPACETRACK.ORG API,18 SPCS,48883,SPACEBEE-100,PAYLOAD,U,21059E,2023/2/9 7:56,813952,15.22432304,0.0008042,97.5774,175.0061,357.451,2.6684,0,999,8987,0.0016725,0.00038806,0,3782313,0 SPACEBEE-100,1 48883U 21059E   23040.33114368  .00038806  00000-0  16725-2 0  9994,2 48883  97.5774 175.0061 0008042 357.4510   2.6684 15.22432304 89875,2021-059E,48883,6876.644,94.585,504.039,492.978,0,2023/3/28
GENERATED VIA SPACETRACK.ORG API,18 SPCS,48883,SPACEBEE-100,PAYLOAD,U,21059E,2023/2/9 20:34,181056,15.22472745,0.0008053,97.5775,175.5362,355.5402,4.576,0,999,8995,0.001647,0.00038256,0,3783241,0 SPACEBEE-100,1 48883U 21059E   23040.85694654  .00038256  00000-0  16470-2 0  9998,2 48883  97.5775 175.5362 0008053 355.5402   4.5760 15.22472745 89954,2021-059E,48883,6876.522,94.583,503.924,492.849,0,2023/3/29
GENERATED VIA SPACETRACK.ORG API,18 SPCS,48883,SPACEBEE-100,PAYLOAD,U,21059E,2023/2/9 20:34,181056,15.22472745,0.0008053,97.5775,175.5362,355.5402,4.576,0,999,8995,0.001647,0.00038256,0,3783443,0 SPACEBEE-100,1 48883U 21059E   23040.85694654  .00038256  00000-0  16470-2 0  9998,2 48883  97.5775 175.5362 0008053 355.5402   4.5760 15.22472745 89954,2021-059E,48883,6876.522,94.583,503.924,492.849,0,2023/3/30
GENERATED VIA SPACETRACK.ORG API,18 SPCS,48883,SPACEBEE-100,PAYLOAD,U,21059E,2023/2/10 2:52,385088,15.22494498,0.0008051,97.5775,175.8013,354.7795,5.3356,0,999,8999,0.0017791,0.00041374,0,3784184,0 SPACEBEE-100,1 48883U 21059E   23041.11984242  .00041374  00000-0  17791-2 0  9995,2 48883  97.5775 175.8013 0008051 354.7795   5.3356 15.22494498 89997,2021-059E,48883,6876.456,94.582,503.858,492.785,0,2023/3/31
GENERATED VIA SPACETRACK.ORG API,18 SPCS,48883,SPACEBEE-100,PAYLOAD,U,21059E,2023/2/10 7:36,770272,15.225162,0.0008064,97.5774,176.0001,353.9458,6.1679,0,999,9002,0.0019833,0.00046191,0,3784448,0 SPACEBEE-100,1 48883U 21059E   23041.31701123  .00046191  00000-0  19833-2 0  9993,2 48883  97.5774 176.0001 0008064 353.9458   6.1679 15.22516200 90026,2021-059E,48883,6876.391,94.58,503.801,492.711,0,2023/4/1
GENERATED VIA SPACETRACK.ORG API,18 SPCS,48883,SPACEBEE-100,PAYLOAD,U,21059E,2023/2/10 7:36,770272,15.225162,0.0008064,97.5774,176.0001,353.9458,6.1679,0,999,9002,0.0019833,0.00046191,0,3785071,0 SPACEBEE-100,1 48883U 21059E   23041.31701123  .00046191  00000-0  19833-2 0  9993,2 48883  97.5774 176.0001 0008064 353.9458   6.1679 15.22516200 90026,2021-059E,48883,6876.391,94.58,503.801,492.711,0,2023/4/2
